WORLDVIEW-3 (WV-3)      
1 40115U 14048A   26115.94600514  .00000857  00000+0  10688-3 0  9997
2 40115  97.8578 191.4998 0002819 109.4801 250.6719 14.84932518634155
GAOFEN-2                
1 40118U 14049A   26115.94558191  .00000896  00000+0  12303-3 0  9993
2 40118  98.0141 180.1955 0008461  49.8911 310.3042 14.80838735631504
YAOGAN-21               
1 40143U 14053A   26115.90000416  .00006494  00000+0  25817-3 0  9998
2 40143  97.1532 158.3962 0006306 279.5621  80.4905 15.25602214646989
YAOGAN-22               
1 40275U 14063A   26115.93860390 -.00000017  00000+0  78032-4 0  9997
2 40275 100.7645 266.3588 0005812 310.8030  49.2577 13.15529622552947
ASNARO                  
1 40298U 14070A   26115.93977507  .00006722  00000+0  31856-3 0  9999
2 40298  97.3460 193.4545 0002913  21.9801 338.1558 15.19621138636073
YAOGAN-24               
1 40310U 14072A   26115.95708081  .00000924  00000+0  14114-3 0  9993
2 40310  98.1402 252.8772 0015258  72.6385 287.6492 14.76152991616016
CBERS 4                 
1 40336U 14079A   26115.96990155  .00000021  00000+0  21899-4 0  9991
2 40336  98.3392 174.4476 0001265 130.4241 229.7056 14.35544386596468
YAOGAN-26               
1 40362U 14088A   26115.90937257  .00028215  00000+0  59342-3 0  9996
2 40362  97.0664 117.4236 0002719 205.4155 154.6962 15.45269004629628
SMAP                    
1 40376U 15003A   26115.90916025  .00000460  00000+0  98005-4 0  9991
2 40376  98.1295 123.7403 0001792  77.1999 282.9403 14.63391596599971
KOMPSAT-3A              
1 40536U 15014A   26115.91374568  .00033462  00000+0  52771-3 0  9999
2 40536  97.6900 103.5567 0059560  10.0488 350.1938 15.51400861613701
SENTINEL-2A             
1 40697U 15028A   26115.97693778 -.00000051  00000+0 -29016-5 0  9993
2 40697  98.5621 191.5744 0001297  86.6961 273.4370 14.30822486566264
GAOFEN-8                
1 40701U 15030A   26115.95007714  .00024395  00000+0  53402-3 0  9998
2 40701  97.6939 306.2566 0009483  30.4883 329.6914 15.44080932603385
CARBONITE 1 (CBNT-1)    
1 40718U 15032D   26115.97667962  .00001681  00000+0  21054-3 0  9998
2 40718  97.6499 296.2403 0015915 104.5674 255.7307 14.83417075581609
YAOGAN-27               
1 40878U 15040A   26115.95428427 -.00000087  00000+0 -11654-3 0  9999
2 40878 100.1144 104.6095 0008046 340.4122  19.6682 13.16066664510792
GAOFEN-9 01             
1 40894U 15047A   26115.96797881  .00000927  00000+0  12030-3 0  9998
2 40894  97.6330 154.0250 0026190 313.6849  46.2195 14.82787233572459
YAOGAN-28               
1 41026U 15064A   26115.96671373  .00007638  00000+0  29272-3 0  9994
2 41026  97.2992 255.3429 0011107  23.9332 336.2422 15.26738775582711
