[{"OBJECT_NAME":"WORLDVIEW-3 (WV-3)","OBJECT_ID":"2014-048A","EPOCH":"2026-04-25T22:42:14.844096","MEAN_MOTION":14.84932518,"ECCENTRICITY":0.00028196,"INCLINATION":97.8578,"RA_OF_ASC_NODE":191.4998,"ARG_OF_PERICENTER":109.4801,"MEAN_ANOMALY":250.6719,"EPHEMERIS_TYPE":0,"CLASSIFICATION_TYPE":"U","NORAD_CAT_ID":40115,"ELEMENT_SET_NO":999,"REV_AT_EPOCH":63415,"BSTAR":0.00010688264,"MEAN_MOTION_DOT":8.57e-6,"MEAN_MOTION_DDOT":0},{"OBJECT_NAME":"GAOFEN-2","OBJECT_ID":"2014-049A","EPOCH":"2026-04-25T22:41:38.277024","MEAN_MOTION":14.80838735,"ECCENTRICITY":0.00084619,"INCLINATION":98.0141,"RA_OF_ASC_NODE":180.1955,"ARG_OF_PERICENTER":49.8911,"MEAN_ANOMALY":310.3042,"EPHEMERIS_TYPE":0,"CLASSIFICATION_TYPE":"U","NORAD_CAT_ID":40118,"ELEMENT_SET_NO":999,"REV_AT_EPOCH":63150,"BSTAR":0.00012302784,"MEAN_MOTION_DOT":8.96e-6,"MEAN_MOTION_DDOT":0},{"OBJECT_NAME":"YAOGAN-21","OBJECT_ID":"2014-053A","EPOCH":"2026-04-25T21:36:00.359424","MEAN_MOTION":15.25602214,"ECCENTRICITY":0.00063069,"INCLINATION":97.1532,"RA_OF_ASC_NODE":158.3962,"ARG_OF_PERICENTER":279.5621,"MEAN_ANOMALY":80.4905,"EPHEMERIS_TYPE":0,"CLASSIFICATION_TYPE":"U","NORAD_CAT_ID":40143,"ELEMENT_SET_NO":999,"REV_AT_EPOCH":64698,"BSTAR":0.00025816859,"MEAN_MOTION_DOT":6.494e-5,"MEAN_MOTION_DDOT":0},{"OBJECT_NAME":"YAOGAN-22","OBJECT_ID":"2014-063A","EPOCH":"2026-04-25T22:31:35.376960","MEAN_MOTION":13.15529622,"ECCENTRICITY":0.00058124,"INCLINATION":100.7645,"RA_OF_ASC_NODE":266.3588,"ARG_OF_PERICENTER":310.803,"MEAN_ANOMALY":49.2577,"EPHEMERIS_TYPE":0,"CLASSIFICATION_TYPE":"U","NORAD_CAT_ID":40275,"ELEMENT_SET_NO":999,"REV_AT_EPOCH":55294,"BSTAR":7.8032331e-5,"MEAN_MOTION_DOT":-1.7e-7,"MEAN_MOTION_DDOT":0},{"OBJECT_NAME":"ASNARO","OBJECT_ID":"2014-070A","EPOCH":"2026-04-25T22:33:16.566048","MEAN_MOTION":15.19621138,"ECCENTRICITY":0.00029133,"INCLINATION":97.346,"RA_OF_ASC_NODE":193.4545,"ARG_OF_PERICENTER":21.9801,"MEAN_ANOMALY":338.1558,"EPHEMERIS_TYPE":0,"CLASSIFICATION_TYPE":"U","NORAD_CAT_ID":40298,"ELEMENT_SET_NO":999,"REV_AT_EPOCH":63607,"BSTAR":0.00031856177,"MEAN_MOTION_DOT":6.722e-5,"MEAN_MOTION_DDOT":0},{"OBJECT_NAME":"YAOGAN-24","OBJECT_ID":"2014-072A","EPOCH":"2026-04-25T22:58:11.781984","MEAN_MOTION":14.76152991,"ECCENTRICITY":0.00152587,"INCLINATION":98.1402,"RA_OF_ASC_NODE":252.8772,"ARG_OF_PERICENTER":72.6385,"MEAN_ANOMALY":287.6492,"EPHEMERIS_TYPE":0,"CLASSIFICATION_TYPE":"U","NORAD_CAT_ID":40310,"ELEMENT_SET_NO":999,"REV_AT_EPOCH":61601,"BSTAR":0.00014114276,"MEAN_MOTION_DOT":9.24e-6,"MEAN_MOTION_DDOT":0},{"OBJECT_NAME":"CBERS 4","OBJECT_ID":"2014-079A","EPOCH":"2026-04-25T23:16:39.493920","MEAN_MOTION":14.35544386,"ECCENTRICITY":0.00012655,"INCLINATION":98.3392,"RA_OF_ASC_NODE":174.4476,"ARG_OF_PERICENTER":130.4241,"MEAN_ANOMALY":229.7056,"EPHEMERIS_TYPE":0,"CLASSIFICATION_TYPE":"U","NORAD_CAT_ID":40336,"ELEMENT_SET_NO":999,"REV_AT_EPOCH":59646,"BSTAR":2.1898915e-5,"MEAN_MOTION_DOT":2.1e-7,"MEAN_MOTION_DDOT":0},{"OBJECT_NAME":"YAOGAN-26","OBJECT_ID":"2014-088A","EPOCH":"2026-04-25T21:49:29.790048","MEAN_MOTION":15.45269004,"ECCENTRICITY":0.00027198,"INCLINATION":97.0664,"RA_OF_ASC_NODE":117.4236,"ARG_OF_PERICENTER":205.4155,"MEAN_ANOMALY":154.6962,"EPHEMERIS_TYPE":0,"CLASSIFICATION_TYPE":"U","NORAD_CAT_ID":40362,"ELEMENT_SET_NO":999,"REV_AT_EPOCH":62962,"BSTAR":0.00059342436,"MEAN_MOTION_DOT":0.00028215,"MEAN_MOTION_DDOT":0},{"OBJECT_NAME":"SMAP","OBJECT_ID":"2015-003A","EPOCH":"2026-04-25T21:49:11.445600","MEAN_MOTION":14.63391596,"ECCENTRICITY":0.00017925,"INCLINATION":98.1295,"RA_OF_ASC_NODE":123.7403,"ARG_OF_PERICENTER":77.1999,"MEAN_ANOMALY":282.9403,"EPHEMERIS_TYPE":0,"CLASSIFICATION_TYPE":"U","NORAD_CAT_ID":40376,"ELEMENT_SET_NO":999,"REV_AT_EPOCH":59997,"BSTAR":9.8005266e-5,"MEAN_MOTION_DOT":4.6e-6,"MEAN_MOTION_DDOT":0},{"OBJECT_NAME":"KOMPSAT-3A","OBJECT_ID":"2015-014A","EPOCH":"2026-04-25T21:55:47.626752","MEAN_MOTION":15.51400861,"ECCENTRICITY":0.00595609,"INCLINATION":97.69,"RA_OF_ASC_NODE":103.5567,"ARG_OF_PERICENTER":10.0488,"MEAN_ANOMALY":350.1938,"EPHEMERIS_TYPE":0,"CLASSIFICATION_TYPE":"U","NORAD_CAT_ID":40536,"ELEMENT_SET_NO":999,"REV_AT_EPOCH":61370,"BSTAR":0.00052771186,"MEAN_MOTION_DOT":0.00033462,"MEAN_MOTION_DDOT":0},{"OBJECT_NAME":"SENTINEL-2A","OBJECT_ID":"2015-028A","EPOCH":"2026-04-25T23:26:47.424192","MEAN_MOTION":14.30822486,"ECCENTRICITY":0.00012978,"INCLINATION":98.5621,"RA_OF_ASC_NODE":191.5744,"ARG_OF_PERICENTER":86.6961,"MEAN_ANOMALY":273.437,"EPHEMERIS_TYPE":0,"CLASSIFICATION_TYPE":"U","NORAD_CAT_ID":40697,"ELEMENT_SET_NO":999,"REV_AT_EPOCH":56626,"BSTAR":-2.901591e-6,"MEAN_MOTION_DOT":-5.1e-7,"MEAN_MOTION_DDOT":0},{"OBJECT_NAME":"GAOFEN-8","OBJECT_ID":"2015-030A","EPOCH":"2026-04-25T22:48:06.664896","MEAN_MOTION":15.44080932,"ECCENTRICITY":0.00094832,"INCLINATION":97.6939,"RA_OF_ASC_NODE":306.2566,"ARG_OF_PERICENTER":30.4883,"MEAN_ANOMALY":329.6914,"EPHEMERIS_TYPE":0,"CLASSIFICATION_TYPE":"U","NORAD_CAT_ID":40701,"ELEMENT_SET_NO":999,"REV_AT_EPOCH":60338,"BSTAR":0.00053401816,"MEAN_MOTION_DOT":0.00024395,"MEAN_MOTION_DDOT":0},{"OBJECT_NAME":"CARBONITE 1 (CBNT-1)","OBJECT_ID":"2015-032D","EPOCH":"2026-04-25T23:26:25.119168","MEAN_MOTION":14.83417075,"ECCENTRICITY":0.00159153,"INCLINATION":97.6499,"RA_OF_ASC_NODE":296.2403,"ARG_OF_PERICENTER":104.5674,"MEAN_ANOMALY":255.7307,"EPHEMERIS_TYPE":0,"CLASSIFICATION_TYPE":"U","NORAD_CAT_ID":40718,"ELEMENT_SET_NO":999,"REV_AT_EPOCH":58160,"BSTAR":0.00021054187,"MEAN_MOTION_DOT":1.681e-5,"MEAN_MOTION_DDOT":0},{"OBJECT_NAME":"YAOGAN-27","OBJECT_ID":"2015-040A","EPOCH":"2026-04-25T22:54:10.160928","MEAN_MOTION":13.16066664,"ECCENTRICITY":0.0008046,"INCLINATION":100.1144,"RA_OF_ASC_NODE":104.6095,"ARG_OF_PERICENTER":340.4122,"MEAN_ANOMALY":19.6682,"EPHEMERIS_TYPE":0,"CLASSIFICATION_TYPE":"U","NORAD_CAT_ID":40878,"ELEMENT_SET_NO":999,"REV_AT_EPOCH":51079,"BSTAR":-0.00011653833,"MEAN_MOTION_DOT":-8.7e-7,"MEAN_MOTION_DDOT":0},{"OBJECT_NAME":"GAOFEN-9 01","OBJECT_ID":"2015-047A","EPOCH":"2026-04-25T23:13:53.369184","MEAN_MOTION":14.82787233,"ECCENTRICITY":0.00261901,"INCLINATION":97.633,"RA_OF_ASC_NODE":154.025,"ARG_OF_PERICENTER":313.6849,"MEAN_ANOMALY":46.2195,"EPHEMERIS_TYPE":0,"CLASSIFICATION_TYPE":"U","NORAD_CAT_ID":40894,"ELEMENT_SET_NO":999,"REV_AT_EPOCH":57245,"BSTAR":0.00012030393,"MEAN_MOTION_DOT":9.27e-6,"MEAN_MOTION_DDOT":0},{"OBJECT_NAME":"YAOGAN-28","OBJECT_ID":"2015-064A","EPOCH":"2026-04-25T23:12:04.066272","MEAN_MOTION":15.26738775,"ECCENTRICITY":0.00111072,"INCLINATION":97.2992,"RA_OF_ASC_NODE":255.3429,"ARG_OF_PERICENTER":23.9332,"MEAN_ANOMALY":336.2422,"EPHEMERIS_TYPE":0,"CLASSIFICATION_TYPE":"U","NORAD_CAT_ID":41026,"ELEMENT_SET_NO":999,"REV_AT_EPOCH":58271,"BSTAR":0.00029271792,"MEAN_MOTION_DOT":7.638e-5,"MEAN_MOTION_DDOT":0}]
